[ {"name": "STARLINK-2104", "line1": "1 47384U 21005AM  26127.70745422 -.00000439  00000+0 -28984-5 0  9996", "line2": "2 47384  53.1571 122.4581 0001185  87.9381 272.1755 15.29354103292425"}, {"name": "STARLINK-2105", "line1": "1 47385U 21005AN  26127.48040925  .00009475  00000+0  34031-3 0  9993", "line2": "2 47385  53.1562 123.6499 0001394  88.6323 271.4837 15.29351405292383"}, {"name": "STARLINK-2106", "line1": "1 47386U 21005AP  26127.69645353  .00001399  00000+0  60796-4 0  9998", "line2": "2 47386  53.1563 122.5553 0001311  93.6815 266.4335 15.29355645292427"}, {"name": "STARLINK-2109", "line1": "1 47388U 21005AR  26127.50488595  .00005753  00000+0  19690-3 0  9997", "line2": "2 47388  53.1586 152.8097 0001353  80.1677 279.9477 15.31718251291970"}, {"name": "STARLINK-2110", "line1": "1 47389U 21005AS  26127.70729456 -.00000588  00000+0 -71726-5 0  9997", "line2": "2 47389  53.1607 122.3272 0001373  83.8943 276.2215 15.31693022292430"}, {"name": "STARLINK-2111", "line1": "1 47390U 21005AT  26127.54683951  .00004915  00000+0  17002-3 0  9991", "line2": "2 47390  53.1600 152.6685 0001118  85.4562 274.6567 15.31705952291988"}, {"name": "STARLINK-2112", "line1": "1 47391U 21005AU  26127.42692477  .00018603  00000+0  11335-2 0  9993", "line2": "2 47391  53.0663 127.1432 0002126  57.3763 302.7433 15.10427677292321"}, {"name": "STARLINK-2113", "line1": "1 47392U 21005AV  26127.75003471  .00193982  00000+0  13945-2 0  9993", "line2": "2 47392  53.0443  86.4872 0005657  45.1369 282.0188 15.72504678  5988"}, {"name": "STARLINK-2114", "line1": "1 47393U 21005AW  26127.75003471  .00179989  00000+0  79881-3 0  9997", "line2": "2 47393  53.0366  50.2992 0005827 122.9700  74.4360 15.83330629  6023"}, {"name": "STARLINK-2119", "line1": "1 47397U 21005BA  26127.54081875  .00006496  00000+0  23128-3 0  9997", "line2": "2 47397  53.1592 149.0622 0001149  80.8607 279.2524 15.30197506292040"}, {"name": "STARLINK-2121", "line1": "1 47399U 21005BC  26127.51620971  .00002358  00000+0  87725-4 0  9999", "line2": "2 47399  53.1602 123.1773 0001192  91.4245 268.6893 15.31704945292401"}, {"name": "STARLINK-2122", "line1": "1 47400U 21005BD  26127.31532885  .00002495  00000+0  92151-4 0  9997", "line2": "2 47400  53.1602 100.9399 0001309  87.7511 272.3640 15.31700609292703"}, {"name": "STARLINK-2123", "line1": "1 47401U 21005BE  26127.75003471  .00015808  00000+0  52053-3 0  9998", "line2": "2 47401  53.1589 122.3473 0001303  86.7383 226.1505 15.31672746  5843"}, {"name": "STARLINK-2128", "line1": "1 47404U 21005BH  26127.67801848  .00102946  00000+0  68954-3 0  9993", "line2": "2 47404  53.0450  85.6343 0006945  54.3891 305.7773 15.74462082292937"}, {"name": "STARLINK-2130", "line1": "1 47405U 21005BJ  26127.57394911  .00003694  00000+0  13075-3 0  9995", "line2": "2 47405  53.1597 148.6355 0001343  89.9267 270.1889 15.31700816292040"}, {"name": "STARLINK-2134", "line1": "1 47407U 21005BL  26127.75003471  .00041504  00000+0  13443-2 0  9995", "line2": "2 47407  53.1585 124.1888 0001284  53.7550 101.6730 15.31638642  5825"}, {"name": "STARLINK-2135", "line1": "1 47408U 21005BM  26127.25420438  .00002653  00000+0  10169-3 0  9992", "line2": "2 47408  53.1615 124.7253 0001478 122.9072 237.2071 15.30188780292357"}, {"name": "STARLINK-1954", "line1": "1 47555U 21009H   26127.53929448  .00048763  00000+0  13202-2 0  9997", "line2": "2 47555  53.0517  94.5268 0003903  42.0381 318.0920 15.37216898289996"}, {"name": "STARLINK-1958", "line1": "1 47559U 21009M   26127.75003471  .00102494  00000+0  48535-3 0  9994", "line2": "2 47559  53.0381  27.6091 0009084 153.8147 215.0232 15.82165576  6026"}, {"name": "STARLINK-1962", "line1": "1 47563U 21009R   26127.54501767  .00106250  00000+0  69992-3 0  9991", "line2": "2 47563  53.0412  66.1287 0001084  81.8520 278.2621 15.74861056290382"}, {"name": "STARLINK-1964", "line1": "1 47565U 21009T   26127.75003471  .00104282  00000+0  51168-3 0  9994", "line2": "2 47565  53.0410  35.5525 0009453 138.4060 113.7890 15.81388573  6015"}, {"name": "STARLINK-1967", "line1": "1 47568U 21009W   26127.56729622  .00088070  00000+0  60238-3 0  9993", "line2": "2 47568  53.0413  74.4327 0003797  83.7458 276.3993 15.74062651290272"}, {"name": "STARLINK-1991", "line1": "1 47587U 21009AR  26127.75003471  .00115427  00000+0  56460-3 0  9991", "line2": "2 47587  53.0408  39.1857 0003705 153.2128 194.0679 15.81468082  6019"}, {"name": "STARLINK-1993", "line1": "1 47588U 21009AS  26127.75003471  .00281336  40055-4  93146-3 0  9996", "line2": "2 47588  53.0353  43.9426 0007514 134.2115 344.1653 15.89881653  6023"}, {"name": "STARLINK-1994", "line1": "1 47589U 21009AT  26127.65943182  .00074151  00000+0  63608-3 0  9994", "line2": "2 47589  53.0424  73.5023 0003997  24.9863 335.1345 15.68740611290298"}, {"name": "STARLINK-1995", "line1": "1 47590U 21009AU  26127.75003471  .00165484  00000+0  13728-2 0  9992", "line2": "2 47590  53.0394  90.6396 0003767  51.2606 299.9718 15.69182735  5936"}, {"name": "STARLINK-1997", "line1": "1 47592U 21009AW  26127.75003471  .00139145  00000+0  73587-3 0  9999", "line2": "2 47592  53.0347  67.4206 0001607 141.9490 159.7713 15.79688654  6017"}, {"name": "STARLINK-2001", "line1": "1 47596U 21009BA  26127.60894796  .00103642  00000+0  11428-2 0  9993", "line2": "2 47596  53.0415  95.9168 0006799  37.2874 322.8610 15.62288548289977"}, {"name": "STARLINK-2021", "line1": "1 47604U 21009BJ  26127.75003471  .00128166  00000+0  69262-3 0  9999", "line2": "2 47604  53.0378  43.1795 0002131  92.6336 126.3871 15.79248762  6010"}, {"name": "STARLINK-1609", "line1": "1 47621U 21012B   26127.43900367  .00049390  00000+0  11573-2 0  9999", "line2": "2 47621  53.1583 149.4225 0005414  31.1187 329.0138 15.41620119289127"}, {"name": "STARLINK-1655", "line1": "1 47623U 21012D   26127.75003471  .00038259  00000+0  22112-3 0  9990", "line2": "2 47623  53.0357  33.5852 0008671 129.0656 248.1181 15.78215777  5958"}, {"name": "STARLINK-1704", "line1": "1 47625U 21012F   26127.29971259  .00057435  00000+0  91576-3 0  9996", "line2": "2 47625  53.0476 142.3338 0008567  27.6831 332.4632 15.52664456289183"}, {"name": "STARLINK-1972", "line1": "1 47627U 21012H   26127.17990961  .00096220  00000+0  12827-2 0  9992", "line2": "2 47627  53.0487  43.0469 0005904  89.1662 271.0026 15.57345965290549"}, {"name": "STARLINK-1973", "line1": "1 47628U 21012J   26127.55599233  .00007680  00000+0  25904-3 0  9995", "line2": "2 47628  53.1575 151.2871 0001233  96.1117 264.0025 15.31693583289107"}, {"name": "STARLINK-1983", "line1": "1 47630U 21012L   26127.55256319 -.00003200  00000+0 -91387-4 0  9998", "line2": "2 47630  53.1599 135.8807 0001216  70.0367 290.0765 15.31706782289298"}, {"name": "STARLINK-1992", "line1": "1 47632U 21012N   26127.10388461  .00003176  00000+0  11929-3 0  9998", "line2": "2 47632  53.1600  61.0839 0001243  95.2535 264.8608 15.30207119290302"}, {"name": "STARLINK-2015", "line1": "1 47638U 21012U   26127.10178186  .00043166  00000+0  13660-2 0  9991", "line2": "2 47638  53.1592  60.9050 0002024 149.9599 210.1519 15.32366606290300"}, {"name": "STARLINK-2019", "line1": "1 47641U 21012X   26127.75003471  .00112935  00000+0  85202-3 0  9993", "line2": "2 47641  53.0405  13.0665 0003972 159.4185 102.9800 15.71653176  5935"}, {"name": "STARLINK-2031", "line1": "1 47648U 21012AE  26127.57586355  .00000100  00000+0  14985-4 0  9998", "line2": "2 47648  53.1583 135.7291 0001263  85.6326 274.4820 15.31703339289322"}, {"name": "STARLINK-2032", "line1": "1 47649U 21012AF  26127.75003471  .00120331  00000+0  69954-3 0  9996", "line2": "2 47649  53.0357  81.3009 0002118 330.2460 227.7800 15.77649868  5952"}, {"name": "STARLINK-2033", "line1": "1 47650U 21012AG  26127.49757525  .00041856  00000+0  11265-2 0  9990", "line2": "2 47650  53.1507 134.6167 0006138  28.3724 331.7613 15.37462568289311"}, {"name": "STARLINK-2036", "line1": "1 47652U 21012AJ  26127.46915010  .00057675  00000+0  93621-3 0  9997", "line2": "2 47652  53.1553 144.2532 0008084  25.2094 334.9310 15.52171071289182"}, {"name": "STARLINK-2039", "line1": "1 47655U 21012AM  26127.56531375  .00001354  00000+0  55400-4 0  9996", "line2": "2 47655  53.1570 151.2979 0001120  99.6342 260.4786 15.31698723289109"}, {"name": "STARLINK-2040", "line1": "1 47656U 21012AN  26127.57121404 -.00000372  00000+0 -20765-6 0  9995", "line2": "2 47656  53.1613 135.7388 0001412  88.8463 271.2701 15.31703876289313"}, {"name": "STARLINK-2041", "line1": "1 47657U 21012AP  26127.60093352  .00063651  00000+0  50152-3 0  9997", "line2": "2 47657  53.1570 139.1131 0002805  71.5106 288.6217 15.70863630289277"}, {"name": "STARLINK-2065", "line1": "1 47672U 21012BE  26127.75003471  .00252917  00000+0  94249-3 0  9993", "line2": "2 47672  53.1450  74.6471 0004701 126.6940 145.6176 15.86783852  6026"}, {"name": "STARLINK-2083", "line1": "1 47676U 21012BJ  26127.68462940  .00080739  00000+0  61735-3 0  9994", "line2": "2 47676  53.0461 352.3902 0002219 200.5680 159.5248 15.71482692291304"}, {"name": "STARLINK-2068", "line1": "1 47722U 21017A   26127.55901898  .00002458  00000+0  90941-4 0  9991", "line2": "2 47722  53.1596 277.2858 0001049  97.6895 262.4226 15.31696240287097"}, {"name": "STARLINK-2107", "line1": "1 47723U 21017B   26127.65951954 -.00001030  00000+0 -21433-4 0  9998", "line2": "2 47723  53.1577 212.5118 0001017  93.2507 266.8611 15.31699919287974"}, {"name": "STARLINK-2131", "line1": "1 47728U 21017G   26127.42959512  .00062137  00000+0  13540-2 0  9997", "line2": "2 47728  53.0742 287.5638 0003550 302.4278  57.6384 15.43693738286928"}, {"name": "STARLINK-2140", "line1": "1 47730U 21017J   26127.51856649  .00000016  00000+0  12274-4 0  9990", "line2": "2 47730  53.1590 303.4356 0001456  89.2325 270.8843 15.31700768286663"}, {"name": "STARLINK-2141", "line1": "1 47731U 21017K   26127.41969229  .00096703  00000+0  12052-2 0  9999", "line2": "2 47731  53.1556 281.2983 0004554 275.5419  84.5074 15.59142901286981"}]